COMMENT,ORIGINATOR,NORAD_CAT_ID,OBJECT_NAME,OBJECT_TYPE,CLASSIFICATION_TYPE,INTLDES,EPOCH,EPOCH_MICROSECONDS,MEAN_MOTION,ECCENTRICITY,INCLINATION,RA_OF_ASC_NODE,ARG_OF_PERICENTER,MEAN_ANOMALY,EPHEMERIS_TYPE,ELEMENT_SET_NO,REV_AT_EPOCH,BSTAR,MEAN_MOTION_DOT,MEAN_MOTION_DDOT,FILE,TLE_LINE0,TLE_LINE1,TLE_LINE2,OBJECT_ID,OBJECT_NUMBER,SEMIMAJOR_AXIS,PERIOD,APOGEE,PERIGEE,DECAYED
"GENERATED VIA SPACETRACK.ORG API","18 SPCS","55097","SPACEBEE-160","PAYLOAD","U","23001CS","2023-03-26 03:56:15","444960","15.16881896","0.001454","97.4868","146.1453","290.7971","69.1704","0","999","1250","0.0011404","0.00022501","0","3871692","0 SPACEBEE-160","1 55097U 23001CS  23085.16406765  .00022501  00000-0  11404-2 0  9997","2 55097  97.4868 146.1453 0014540 290.7971  69.1704 15.16881896 12501","2023-001CS","55097","6893.408","94.932","525.296","505.250","0"
"GENERATED VIA SPACETRACK.ORG API","18 SPCS","55097","SPACEBEE-160","PAYLOAD","U","23001CS","2023-03-26 15:01:11","871840","15.16899007","0.0014518","97.4869","146.6013","288.7715","71.1943","0","999","1257","0.0010235","0.00020191","0","3871964","0 SPACEBEE-160","1 55097U 23001CS  23085.62583185  .00020191  00000-0  10235-2 0  9994","2 55097  97.4869 146.6013 0014518 288.7715  71.1943 15.16899007 12575","2023-001CS","55097","6893.356","94.931","525.229","505.214","0"
"GENERATED VIA SPACETRACK.ORG API","18 SPCS","55097","SPACEBEE-160","PAYLOAD","U","23001CS","2023-03-27 03:41:07","199520","15.16918102","0.0014534","97.4867","147.1229","286.8633","73.1006","0","999","1265","0.00097553","0.0001925","0","3872547","0 SPACEBEE-160","1 55097U 23001CS  23086.15355555  .00019250  00000-0  97553-3 0  9994","2 55097  97.4867 147.1229 0014534 286.8633  73.1006 15.16918102 12653","2023-001CS","55097","6893.299","94.929","525.182","505.145","0"
"GENERATED VIA SPACETRACK.ORG API","18 SPCS","55097","SPACEBEE-160","PAYLOAD","U","23001CS","2023-03-27 03:41:07","199520","15.16918102","0.0014534","97.4867","147.1229","286.8633","73.1006","0","999","1265","0.00097553","0.0001925","0","3872569","0 SPACEBEE-160","1 55097U 23001CS  23086.15355555  .00019250  00000-0  97553-3 0  9994","2 55097  97.4867 147.1229 0014534 286.8633  73.1006 15.16918102 12653","2023-001CS","55097","6893.299","94.929","525.182","505.145","0"
"GENERATED VIA SPACETRACK.ORG API","18 SPCS","55097","SPACEBEE-160","PAYLOAD","U","23001CS","2023-03-27 21:05:59","827488","15.16944422","0.0014528","97.486","147.8392","284.0487","75.9131","0","999","1276","0.00096007","0.00018957","0","3872915","0 SPACEBEE-160","1 55097U 23001CS  23086.87916467  .00018957  00000-0  96007-3 0  9994","2 55097  97.4860 147.8392 0014528 284.0487  75.9131 15.16944422 12769","2023-001CS","55097","6893.219","94.928","525.098","505.069","0"
"GENERATED VIA SPACETRACK.ORG API","18 SPCS","55097","SPACEBEE-160","PAYLOAD","U","23001CS","2023-03-28 03:25:56","788896","15.16956718","0.0014604","97.4861","148.0997","283.0022","76.9581","0","999","1280","0.00096088","0.0001898","0","3873565","0 SPACEBEE-160","1 55097U 23001CS  23087.14301839  .00018980  00000-0  96088-3 0  9991","2 55097  97.4861 148.0997 0014604 283.0022  76.9581 15.16956718 12809","2023-001CS","55097","6893.182","94.927","525.113","504.980","0"
"GENERATED VIA SPACETRACK.ORG API","18 SPCS","55097","SPACEBEE-160","PAYLOAD","U","23001CS","2023-03-28 16:05:50","333280","15.16978844","0.0014654","97.4859","148.621","280.9576","79.0008","0","999","1288","0.0010267","0.00020302","0","3873544","0 SPACEBEE-160","1 55097U 23001CS  23087.67072145  .00020302  00000-0  10267-2 0  9999","2 55097  97.4859 148.6210 0014654 280.9576  79.0008 15.16978844 12885","2023-001CS","55097","6893.114","94.926","525.081","504.878","0"
"GENERATED VIA SPACETRACK.ORG API","18 SPCS","55097","SPACEBEE-160","PAYLOAD","U","23001CS","2023-03-28 16:05:50","333280","15.16978844","0.0014654","97.4859","148.621","280.9576","79.0008","0","999","1288","0.0010267","0.00020302","0","3873921","0 SPACEBEE-160","1 55097U 23001CS  23087.67072145  .00020302  00000-0  10267-2 0  9999","2 55097  97.4859 148.6210 0014654 280.9576  79.0008 15.16978844 12885","2023-001CS","55097","6893.114","94.926","525.081","504.878","0"
"GENERATED VIA SPACETRACK.ORG API","18 SPCS","55097","SPACEBEE-160","PAYLOAD","U","23001CS","2023-03-29 09:30:40","318272","15.1701276","0.0014737","97.4856","149.3374","278.6528","81.3036","0","999","1299","0.0011813","0.00023402","0","3874492","0 SPACEBEE-160","1 55097U 23001CS  23088.39629998  .00023402  00000-0  11813-2 0  9995","2 55097  97.4856 149.3374 0014737 278.6528  81.3036 15.17012760 12990","2023-001CS","55097","6893.012","94.923","525.035","504.719","0"
"GENERATED VIA SPACETRACK.ORG API","18 SPCS","55097","SPACEBEE-160","PAYLOAD","U","23001CS","2023-03-29 17:25:35","302656","15.17029966","0.001471","97.4857","149.6634","277.214","82.7421","0","999","1304","0.0012825","0.00025432","0","3874770","0 SPACEBEE-160","1 55097U 23001CS  23088.72610304  .00025432  00000-0  12825-2 0  9992","2 55097  97.4857 149.6634 0014710 277.2140  82.7421 15.17029966 13045","2023-001CS","55097","6892.960","94.922","524.964","504.685","0"
"GENERATED VIA SPACETRACK.ORG API","18 SPCS","55097","SPACEBEE-160","PAYLOAD","U","23001CS","2023-03-29 17:25:35","302656","15.17029966","0.001471","97.4857","149.6634","277.214","82.7421","0","999","1304","0.0012825","0.00025432","0","3874790","0 SPACEBEE-160","1 55097U 23001CS  23088.72610304  .00025432  00000-0  12825-2 0  9992","2 55097  97.4857 149.6634 0014710 277.2140  82.7421 15.17029966 13045","2023-001CS","55097","6892.960","94.922","524.964","504.685","0"
"GENERATED VIA SPACETRACK.ORG API","18 SPCS","55097","SPACEBEE-160","PAYLOAD","U","23001CS","2023-03-30 09:15:24","342624","15.17062227","0.0014702","97.4859","150.3149","274.4948","85.4606","0","999","1314","0.0013081","0.00025967","0","3875726","0 SPACEBEE-160","1 55097U 23001CS  23089.38569841  .00025967  00000-0  13081-2 0  9992","2 55097  97.4859 150.3149 0014702 274.4948  85.4606 15.17062227 13146","2023-001CS","55097","6892.862","94.920","524.861","504.593","0"
"GENERATED VIA SPACETRACK.ORG API","18 SPCS","55097","SPACEBEE-160","PAYLOAD","U","23001CS","2023-03-31 02:40:10","806816","15.17103147","0.0014639","97.4856","151.0317","271.697","88.2586","0","999","1325","0.0014789","0.00029414","0","3876029","0 SPACEBEE-160","1 55097U 23001CS  23090.11123619  .00029414  00000-0  14789-2 0  9991","2 55097  97.4856 151.0317 0014639 271.6970  88.2586 15.17103147 13258","2023-001CS","55097","6892.738","94.918","524.693","504.513","0"
"GENERATED VIA SPACETRACK.ORG API","18 SPCS","55097","SPACEBEE-160","PAYLOAD","U","23001CS","2023-04-01 03:59:48","192000","15.17157108","0.0014538","97.486","152.0743","267.3819","92.5751","0","999","1341","0.0012663","0.00025199","0","3876925","0 SPACEBEE-160","1 55097U 23001CS  23091.16653000  .00025199  00000-0  12663-2 0  9994","2 55097  97.4860 152.0743 0014538 267.3819  92.5751 15.17157108 13415","2023-001CS","55097","6892.575","94.914","524.460","504.419","0"
"GENERATED VIA SPACETRACK.ORG API","18 SPCS","55097","SPACEBEE-160","PAYLOAD","U","23001CS","2023-04-01 03:59:48","192000","15.17157108","0.0014538","97.486","152.0743","267.3819","92.5751","0","999","1341","0.0012663","0.00025199","0","3877270","0 SPACEBEE-160","1 55097U 23001CS  23091.16653000  .00025199  00000-0  12663-2 0  9994","2 55097  97.4860 152.0743 0014538 267.3819  92.5751 15.17157108 13415","2023-001CS","55097","6892.575","94.914","524.460","504.419","0"
"GENERATED VIA SPACETRACK.ORG API","18 SPCS","55097","SPACEBEE-160","PAYLOAD","U","23001CS","2023-04-01 21:24:30","986784","15.17187231","0.0014625","97.4865","152.7918","264.8083","95.1482","0","999","1352","0.0011786","0.00023465","0","3877516","0 SPACEBEE-160","1 55097U 23001CS  23091.89202531  .00023465  00000-0  11786-2 0  9992","2 55097  97.4865 152.7918 0014625 264.8083  95.1482 15.17187231 13525","2023-001CS","55097","6892.483","94.912","524.429","504.268","0"
"GENERATED VIA SPACETRACK.ORG API","18 SPCS","55097","SPACEBEE-160","PAYLOAD","U","23001CS","2023-04-02 10:04:17","646816","15.17211516","0.0014645","97.4861","153.3128","262.7997","97.1572","0","999","1360","0.0012093","0.00024097","0","3878126","0 SPACEBEE-160","1 55097U 23001CS  23092.41964869  .00024097  00000-0  12093-2 0  9994","2 55097  97.4861 153.3128 0014645 262.7997  97.1572 15.17211516 13609","2023-001CS","55097","6892.410","94.911","524.369","504.181","0"
"GENERATED VIA SPACETRACK.ORG API","18 SPCS","55097","SPACEBEE-160","PAYLOAD","U","23001CS","2023-04-02 14:49:12","471744","15.17219041","0.0014649","97.486","153.5083","261.9866","97.9705","0","999","1363","0.0010686","0.00021282","0","3878105","0 SPACEBEE-160","1 55097U 23001CS  23092.61750546  .00021282  00000-0  10686-2 0  9990","2 55097  97.4860 153.5083 0014649 261.9866  97.9705 15.17219041 13630","2023-001CS","55097","6892.387","94.910","524.349","504.155","0"
"GENERATED VIA SPACETRACK.ORG API","18 SPCS","55097","SPACEBEE-160","PAYLOAD","U","23001CS","2023-04-02 21:09:05","419872","15.17226578","0.0014655","97.4859","153.7692","261.0296","98.9279","0","999","1367","0.0008943","0.00017795","0","3878419","0 SPACEBEE-160","1 55097U 23001CS  23092.88131273  .00017795  00000-0  89430-3 0  9997","2 55097  97.4859 153.7692 0014655 261.0296  98.9279 15.17226578 13675","2023-001CS","55097","6892.364","94.910","524.330","504.128","0"
"GENERATED VIA SPACETRACK.ORG API","18 SPCS","55097","SPACEBEE-160","PAYLOAD","U","23001CS","2023-04-03 03:28:58","210752","15.17240482","0.0014698","97.4857","154.0299","260.1672","99.7902","0","999","1371","0.0010715","0.00021353","0","3879059","0 SPACEBEE-160","1 55097U 23001CS  23093.14511818  .00021353  00000-0  10715-2 0  9998","2 55097  97.4857 154.0299 0014698 260.1672  99.7902 15.17240482 13712","2023-001CS","55097","6892.322","94.909","524.317","504.057","0"
